NORAD_CAT_ID,OBJECT_NAME,OBJECT_TYPE,EPOCH,MEAN_MOTION,ECCENTRICITY,INCLINATION,RA_OF_ASC_NODE,ARG_OF_PERICENTER,MEAN_ANOMALY,BSTAR,MEAN_MOTION_DOT,MEAN_MOTION_DDOT,TLE_LINE0,TLE_LINE1,TLE_LINE2,SEMIMAJOR_AXIS,PERIOD,APOGEE,PERIGEE,DECAYED
53999.0,STARLINK-5079,PAYLOAD,2024-01-11 18:19:44,15.08849031,0.0001479,53.2173,151.176,83.3363,276.7797,0.00011963,1.617e-05,0.0,0 STARLINK-5079,1 53999U 22125AM  24011.76371464  .00001617  00000-0  11963-3 0  9991,2 53999  53.2173 151.1760 0001479  83.3363 276.7797 15.08849031 70580,6917.853,95.437,540.741,538.695,0.0
53999.0,STARLINK-5079,PAYLOAD,2024-01-12 08:38:14,15.08831051,0.0001328,53.2171,148.5011,77.6923,282.4218,2.827e-05,1.62e-06,0.0,0 STARLINK-5079,1 53999U 22125AM  24012.35989070  .00000162  00000-0  28270-4 0  9999,2 53999  53.2171 148.5011 0001328  77.6923 282.4218 15.08831051 70673,6917.908,95.438,540.691,538.854,0.0
53999.0,STARLINK-5079,PAYLOAD,2024-01-12 14:59:46,15.08835598,0.0001351,53.2159,147.3112,79.4383,280.6761,6.8704e-05,8.06e-06,0.0,0 STARLINK-5079,1 53999U 22125AM  24012.62484787  .00000806  00000-0  68704-4 0  9995,2 53999  53.2159 147.3112 0001351  79.4383 280.6761 15.08835598 70644,6917.894,95.438,540.693,538.824,0.0
53999.0,STARLINK-5079,PAYLOAD,2024-01-12 16:35:09,15.08837832,0.0001311,53.2159,147.0136,91.8065,268.3077,9.454e-05,1.217e-05,0.0,0 STARLINK-5079,1 53999U 22125AM  24012.69108587  .00001217  00000-0  94540-4 0  9997,2 53999  53.2159 147.0136 0001311  91.8065 268.3077 15.08837832 70723,6917.887,95.438,540.659,538.845,0.0
53999.0,STARLINK-5079,PAYLOAD,2024-01-13 14:50:33,15.0885031,0.0001228,53.2156,142.8513,89.2258,270.8875,4.9666e-05,5.03e-06,0.0,0 STARLINK-5079,1 53999U 22125AM  24013.61844132  .00000503  00000-0  49666-4 0  9999,2 53999  53.2156 142.8513 0001228  89.2258 270.8875 15.08850310 70791,6917.849,95.437,540.563,538.864,0.0
53999.0,STARLINK-5079,PAYLOAD,2024-01-14 11:30:34,15.08839622,0.0001417,53.2151,138.9869,67.7,292.4142,0.00015493,2.179e-05,0.0,0 STARLINK-5079,1 53999U 22125AM  24014.47956925  .00002179  00000-0  15493-3 0  9999,2 53999  53.2151 138.9869 0001417  67.7000 292.4142 15.08839622 70994,6917.882,95.438,540.727,538.766,0.0
53999.0,STARLINK-5079,PAYLOAD,2024-01-14 14:41:20,15.08845049,0.0001397,53.2161,138.3907,83.8638,276.2513,0.00012851,1.758e-05,0.0,0 STARLINK-5079,1 53999U 22125AM  24014.61204371  .00001758  00000-0  12851-3 0  9993,2 53999  53.2161 138.3907 0001397  83.8638 276.2513 15.08845049 70942,6917.865,95.437,540.696,538.764,0.0
53999.0,STARLINK-5079,PAYLOAD,2024-01-15 14:32:07,15.08851344,0.0001349,53.2174,133.9318,80.7392,279.3753,3.5997e-05,2.85e-06,0.0,0 STARLINK-5079,1 53999U 22125AM  24015.60564064  .00000285  00000-0  35997-4 0  9992,2 53999  53.2174 133.9318 0001349  80.7392 279.3753 15.08851344 71095,6917.846,95.437,540.644,538.777,0.0
53999.0,STARLINK-5079,PAYLOAD,2024-01-16 11:12:09,15.08836741,0.0001633,53.2175,130.064,102.1027,258.0148,8.5389e-06,-1.52e-06,0.0,0 STARLINK-5079,1 53999U 22125AM  24016.46677105 -.00000152  00000-0  85389-5 0  9993,2 53999  53.2175 130.0640 0001633 102.1027 258.0148 15.08836741 71290,6917.89,95.438,540.885,538.626,0.0
53999.0,STARLINK-5079,PAYLOAD,2024-01-16 14:22:55,15.08837783,0.0001518,53.2176,129.469,99.9572,260.1591,-2.3591e-06,-3.26e-06,0.0,0 STARLINK-5079,1 53999U 22125AM  24016.59925037 -.00000326  00000-0 -23591-5 0  9998,2 53999  53.2176 129.4690 0001518  99.9572 260.1591 15.08837783 71246,6917.887,95.438,540.802,538.702,0.0
53999.0,STARLINK-5079,PAYLOAD,2024-01-17 12:38:19,15.08837748,0.0001466,53.2174,125.3061,90.0521,270.0639,1.7282e-06,-2.6e-06,0.0,0 STARLINK-5079,1 53999U 22125AM  24017.52661439 -.00000260  00000-0  17282-5 0  9991,2 53999  53.2174 125.3061 0001466  90.0521 270.0639 15.08837748 71388,6917.887,95.438,540.766,538.738,0.0
53999.0,STARLINK-5079,PAYLOAD,2024-01-18 14:04:29,15.08843173,0.0001504,53.2174,120.5492,82.8468,277.2695,0.00016919,2.406e-05,0.0,0 STARLINK-5079,1 53999U 22125AM  24018.58645067  .00002406  00000-0  16919-3 0  9994,2 53999  53.2174 120.5492 0001504  82.8468 277.2695 15.08843173 71543,6917.871,95.437,540.776,538.695,0.0
53999.0,STARLINK-5079,PAYLOAD,2024-01-18 15:39:52,15.08846169,0.0001584,53.218,120.2516,93.0004,267.1169,0.0001965,2.841e-05,0.0,0 STARLINK-5079,1 53999U 22125AM  24018.65268806  .00002841  00000-0  19650-3 0  9992,2 53999  53.2180 120.2516 0001584  93.0004 267.1169 15.08846169 71623,6917.862,95.437,540.822,538.631,0.0
53999.0,STARLINK-5079,PAYLOAD,2024-01-19 12:19:53,15.0884176,0.0001753,53.2178,116.3884,106.5456,253.5729,8.677e-05,1.093e-05,0.0,0 STARLINK-5079,1 53999U 22125AM  24019.51381435  .00001093  00000-0  86770-4 0  9998,2 53999  53.2178 116.3884 0001753 106.5456 253.5729 15.08841760 71750,6917.875,95.437,540.953,538.527,0.0
53999.0,STARLINK-5079,PAYLOAD,2024-01-19 13:55:16,15.08844147,0.0001667,53.218,116.0917,93.0437,267.0746,0.0001217,1.65e-05,0.0,0 STARLINK-5079,1 53999U 22125AM  24019.58005269  .00001650  00000-0  12170-3 0  9994,2 53999  53.2180 116.0917 0001667  93.0437 267.0746 15.08844147 71694,6917.868,95.437,540.886,538.58,0.0
53999.0,STARLINK-5079,PAYLOAD,2024-01-20 13:46:03,15.08847089,0.0002,53.2189,111.6284,62.3551,297.7644,3.6008e-05,2.85e-06,0.0,0 STARLINK-5079,1 53999U 22125AM  24020.57365376  .00000285  00000-0  36008-4 0  9993,2 53999  53.2189 111.6284 0002000  62.3551 297.7644 15.08847089 71841,6917.859,95.437,541.107,538.34,0.0
53999.0,STARLINK-5079,PAYLOAD,2024-01-20 15:21:26,15.08848753,0.0001807,53.2194,111.3242,65.2892,294.8288,7.58e-05,9.19e-06,0.0,0 STARLINK-5079,1 53999U 22125AM  24020.63989020  .00000919  00000-0  75800-4 0  9995,2 53999  53.2194 111.3242 0001807  65.2892 294.8288 15.08848753 71922,6917.854,95.437,540.969,538.469,0.0
53999.0,STARLINK-5079,PAYLOAD,2024-01-21 05:39:55,15.08841337,0.0001522,53.2177,108.6494,129.1411,230.9716,-7.6845e-05,-1.511e-05,0.0,0 STARLINK-5079,1 53999U 22125AM  24021.23605857 -.00001511  00000-0 -76845-4 0  9996,2 53999  53.2177 108.6494 0001522 129.1411 230.9716 15.08841337 71942,6917.876,95.437,540.794,538.688,0.0
53999.0,STARLINK-5079,PAYLOAD,2024-01-21 12:01:27,15.08846061,0.0001708,53.2179,107.4664,81.2562,278.8623,4.1381e-05,3.71e-06,0.0,0 STARLINK-5079,1 53999U 22125AM  24021.50101295  .00000371  00000-0  41381-4 0  9991,2 53999  53.2179 107.4664 0001708  81.2562 278.8623 15.08846061 72051,6917.862,95.437,540.908,538.545,0.0
53999.0,STARLINK-5079,PAYLOAD,2024-01-21 15:12:13,15.08849701,0.0001872,53.2179,106.8702,93.6115,266.5091,5.205e-05,5.41e-06,0.0,0 STARLINK-5079,1 53999U 22125AM  24021.63348907  .00000541  00000-0  52050-4 0  9992,2 53999  53.2179 106.8702 0001872  93.6115 266.5091 15.08849701 72002,6917.851,95.437,541.011,538.421,0.0
53999.0,STARLINK-5079,PAYLOAD,2024-01-22 11:52:14,15.08845675,0.0001682,53.2178,103.0039,82.8732,277.2452,6.5894e-06,-1.83e-06,0.0,0 STARLINK-5079,1 53999U 22125AM  24022.49461423 -.00000183  00000-0  65894-5 0  9990,2 53999  53.2178 103.0039 0001682  82.8732 277.2452 15.08845675 72205,6917.863,95.437,540.892,538.564,0.0
53999.0,STARLINK-5079,PAYLOAD,2024-01-23 10:07:38,15.0884549,0.0001631,53.2181,98.84,100.8243,259.2933,4.2973e-05,3.96e-06,0.0,0 STARLINK-5079,1 53999U 22125AM  24023.42197285  .00000396  00000-0  42973-4 0  9993,2 53999  53.2181  98.8400 0001631 100.8243 259.2933 15.08845490 72270,6917.864,95.437,540.857,538.6,0.0
53999.0,STARLINK-5079,PAYLOAD,2024-01-24 09:58:26,15.08835404,0.0001946,53.2182,94.3871,120.9438,239.1746,9.6479e-06,-1.35e-06,0.0,0 STARLINK-5079,1 53999U 22125AM  24024.41558188 -.00000135  00000-0  96479-5 0  9999,2 53999  53.2182  94.3871 0001946 120.9438 239.1746 15.08835404 72499,6917.894,95.438,541.106,538.413,0.0
53999.0,STARLINK-5079,PAYLOAD,2024-01-25 11:24:36,15.08817236,0.0001826,53.2174,89.6252,115.3977,244.7205,0.00039185,5.95e-05,0.0,0 STARLINK-5079,1 53999U 22125AM  24025.47542560  .00005950  00000-0  39185-3 0  9991,2 53999  53.2174  89.6252 0001826 115.3977 244.7205 15.08817236 72656,6917.95,95.439,541.078,538.552,0.0
53999.0,STARLINK-5079,PAYLOAD,2024-01-25 22:32:18,15.08837127,0.0001614,53.2177,87.5435,113.2435,246.8728,9.3718e-05,1.204e-05,0.0,0 STARLINK-5079,1 53999U 22125AM  24025.93910203  .00001204  00000-0  93718-4 0  9996,2 53999  53.2177  87.5435 0001614 113.2435 246.8728 15.08837127 72722,6917.889,95.438,540.871,538.638,0.0
53999.0,STARLINK-5079,PAYLOAD,2024-01-26 11:15:23,15.08818297,0.0001581,53.2172,85.1648,102.9252,257.1917,0.00049974,7.67e-05,0.0,0 STARLINK-5079,1 53999U 22125AM  24026.46902559  .00007670  00000-0  49974-3 0  9997,2 53999  53.2172  85.1648 0001581 102.9252 257.1917 15.08818297 72803,6917.947,95.439,540.905,538.718,0.0
53999.0,STARLINK-5079,PAYLOAD,2024-01-27 11:06:10,15.08841606,0.0001493,53.2178,80.7048,92.4262,267.6901,7.7683e-05,9.49e-06,0.0,0 STARLINK-5079,1 53999U 22125AM  24027.46262428  .00000949  00000-0  77683-4 0  9993,2 53999  53.2178  80.7048 0001493  92.4262 267.6901 15.08841606 72955,6917.875,95.437,540.773,538.708,0.0
53999.0,STARLINK-5079,PAYLOAD,2024-01-28 09:21:33,15.08849361,0.0001796,53.2172,76.5422,75.1149,285.0042,0.0001371,1.895e-05,0.0,0 STARLINK-5079,1 53999U 22125AM  24028.38997572  .00001895  00000-0  13710-3 0  9991,2 53999  53.2172  76.5422 0001796  75.1149 285.0042 15.08849361 73098,6917.852,95.437,540.959,538.474,0.0
53999.0,STARLINK-5079,PAYLOAD,2024-01-29 09:12:21,15.08842566,0.0001461,53.2178,72.0798,102.3826,257.733,1.6718e-05,-2.2e-07,0.0,0 STARLINK-5079,1 53999U 22125AM  24029.38358042 -.00000022  00000-0  16718-4 0  9999,2 53999  53.2178  72.0798 0001461 102.3826 257.7330 15.08842566 73248,6917.873,95.437,540.748,538.727,0.0
53999.0,STARLINK-5079,PAYLOAD,2024-01-30 12:13:54,15.0884615,0.0001763,53.2178,67.0193,102.9306,257.1883,-0.00010534,-1.965e-05,0.0,0 STARLINK-5079,1 53999U 22125AM  24030.50966147 -.00001965  00000-0 -10534-3 0  9993,2 53999  53.2178  67.0193 0001763 102.9306 257.1883 15.08846150 73346,6917.862,95.437,540.946,538.507,0.0
